HAWK-A                  
1 43765U 18099H   26187.70792580  .00005528  00000+0  22165-3 0  9992
2 43765  97.3900 239.6909 0033854 214.1845 145.7213 15.24890442416071
HAWK-B                  
1 43794U 18099AN  26187.68713352  .00005420  00000+0  23028-3 0  9991
2 43794  97.3947 239.0444 0030644 232.7871 127.0569 15.23050465416003
HAWK-C                  
1 43799U 18099AT  26187.64004273  .00006853  00000+0  24495-3 0  9997
2 43799  97.3876 240.6324 0039501 214.3918 145.4764 15.28398754416881
HAWK-2C                 
1 47502U 21006CT  26187.71178631  .00005457  00000+0  16330-3 0  9991
2 47502  97.2268 231.6334 0008424 125.3355 234.8678 15.34915757302491
HAWK-2A                 
1 47505U 21006CW  26187.64890071  .00005455  00000+0  16322-3 0  9994
2 47505  97.2308 232.2610 0007893 128.4326 231.7627 15.34929187302485
HAWK-2B                 
1 47508U 21006CZ  26187.70831551  .00006285  00000+0  18692-3 0  9996
2 47508  97.2178 230.6202 0008473 126.7999 233.4023 15.35052854302493
HAWK-3B                 
1 48931U 21059BE  26187.50439762  .00036099  00000+0  28563-3 0  9995
2 48931  97.6647  26.0618 0003758 231.7433 128.3491 15.71268243280888
HAWK-3C                 
1 48948U 21059BX  26187.56777301  .00034494  00000+0  27299-3 0  9995
2 48948  97.6770  31.8503 0004026 233.2972 126.7921 15.71270324280898
HAWK-3A                 
1 48957U 21059CG  26187.50397322  .00034361  00000+0  27204-3 0  9999
2 48957  97.6711  28.9694 0003944 235.8435 124.2453 15.71262129280887
HAWK-5C                 
1 52754U 22057Y   26187.39011117  .00017936  00000+0  29846-3 0  9993
2 52754  97.6617 348.3071 0003684  18.8355 341.3033 15.52101224229326
HAWK-5B                 
1 52756U 22057AA  26187.38992365  .00018330  00000+0  30488-3 0  9990
2 52756  97.6633 346.6586 0004253   7.0663 353.0648 15.52105754229327
HAWK-5A                 
1 52757U 22057AB  26187.71208144  .00014932  00000+0  24873-3 0  9998
2 52757  97.6630 347.8331 0004101  10.3745 349.7591 15.52112990229370
HAWK-6B                 
1 55324U 23011A   26187.59255838  .00003425  00000+0  15030-3 0  9990
2 55324  40.4971 238.8741 0002872 193.0540 167.0196 15.23104439190800
HAWK-6C                 
1 55326U 23011C   26187.59193758  .00003714  00000+0  16225-3 0  9992
2 55326  40.4956 235.7136 0003231 178.1092 181.9730 15.23104424190819
HAWK-6A                 
1 55327U 23011D   26187.59197125  .00003696  00000+0  16152-3 0  9993
2 55327  40.4967 237.3402 0002762 177.2509 182.8315 15.23105575190814
HAWK-7A                 
1 56191U 23054P   26187.76351198  .00004892  00000+0  18412-3 0  9991
2 56191  97.2674  74.6028 0002400   8.5213 351.6067 15.27572982180017
